[{"OBJECT_NAME":"CZ-3C DEB","OBJECT_ID":"2012-008K","EPOCH":"2026-03-31T18:15:16.830144","MEAN_MOTION":2.1922386,"ECCENTRICITY":0.69809447,"INCLINATION":20.8778,"RA_OF_ASC_NODE":278.7761,"ARG_OF_PERICENTER":89.9474,"MEAN_ANOMALY":342.9246,"EPHEMERIS_TYPE":0,"CLASSIFICATION_TYPE":"U","NORAD_CAT_ID":40200,"ELEMENT_SET_NO":999,"REV_AT_EPOCH":9702,"BSTAR":0,"MEAN_MOTION_DOT":-2.56e-6,"MEAN_MOTION_DDOT":0},{"OBJECT_NAME":"CZ-3C DEB","OBJECT_ID":"2012-008L","EPOCH":"2026-04-04T08:50:06.417312","MEAN_MOTION":2.24705643,"ECCENTRICITY":0.70626712,"INCLINATION":21.3037,"RA_OF_ASC_NODE":100.8506,"ARG_OF_PERICENTER":34.508,"MEAN_ANOMALY":355.6997,"EPHEMERIS_TYPE":0,"CLASSIFICATION_TYPE":"U","NORAD_CAT_ID":40201,"ELEMENT_SET_NO":999,"REV_AT_EPOCH":10153,"BSTAR":0.0095676236,"MEAN_MOTION_DOT":7.3e-7,"MEAN_MOTION_DDOT":0},{"OBJECT_NAME":"CZ-3C DEB","OBJECT_ID":"2012-008R","EPOCH":"2026-03-20T18:45:12.074400","MEAN_MOTION":2.19223329,"ECCENTRICITY":0.72312393,"INCLINATION":18.2935,"RA_OF_ASC_NODE":33.8455,"ARG_OF_PERICENTER":265.5993,"MEAN_ANOMALY":16.8176,"EPHEMERIS_TYPE":0,"CLASSIFICATION_TYPE":"U","NORAD_CAT_ID":40206,"ELEMENT_SET_NO":999,"REV_AT_EPOCH":9191,"BSTAR":-0.002128945,"MEAN_MOTION_DOT":-2.59e-6,"MEAN_MOTION_DDOT":0},{"OBJECT_NAME":"CZ-3C DEB","OBJECT_ID":"2012-008S","EPOCH":"2026-04-04T18:33:59.367456","MEAN_MOTION":2.2431469,"ECCENTRICITY":0.72090481,"INCLINATION":19.58,"RA_OF_ASC_NODE":337.8116,"ARG_OF_PERICENTER":331.7085,"MEAN_ANOMALY":3.438,"EPHEMERIS_TYPE":0,"CLASSIFICATION_TYPE":"U","NORAD_CAT_ID":40207,"ELEMENT_SET_NO":999,"REV_AT_EPOCH":9377,"BSTAR":-0.00031157195,"MEAN_MOTION_DOT":-1.59e-6,"MEAN_MOTION_DDOT":0},{"OBJECT_NAME":"BREEZE-M R/B","OBJECT_ID":"2014-058B","EPOCH":"2026-04-04T14:29:33.216288","MEAN_MOTION":0.91687372,"ECCENTRICITY":0.06383628,"INCLINATION":10.3081,"RA_OF_ASC_NODE":60.4462,"ARG_OF_PERICENTER":197.1007,"MEAN_ANOMALY":160.6749,"EPHEMERIS_TYPE":0,"CLASSIFICATION_TYPE":"U","NORAD_CAT_ID":40259,"ELEMENT_SET_NO":999,"REV_AT_EPOCH":3855,"BSTAR":0,"MEAN_MOTION_DOT":-1.89e-6,"MEAN_MOTION_DDOT":0},{"OBJECT_NAME":"HIMAWARI-8","OBJECT_ID":"2014-060A","EPOCH":"2026-04-05T06:34:06.239712","MEAN_MOTION":1.00273836,"ECCENTRICITY":0.00010102,"INCLINATION":0.0166,"RA_OF_ASC_NODE":178.9139,"ARG_OF_PERICENTER":185.4512,"MEAN_ANOMALY":68.3911,"EPHEMERIS_TYPE":0,"CLASSIFICATION_TYPE":"U","NORAD_CAT_ID":40267,"ELEMENT_SET_NO":999,"REV_AT_EPOCH":4202,"BSTAR":0,"MEAN_MOTION_DOT":-2.74e-6,"MEAN_MOTION_DDOT":0},{"OBJECT_NAME":"IRNSS-1C","OBJECT_ID":"2014-061A","EPOCH":"2026-04-05T00:42:21.913056","MEAN_MOTION":1.00273058,"ECCENTRICITY":0.00208482,"INCLINATION":6.3305,"RA_OF_ASC_NODE":90.3322,"ARG_OF_PERICENTER":356.3073,"MEAN_ANOMALY":200.3264,"EPHEMERIS_TYPE":0,"CLASSIFICATION_TYPE":"U","NORAD_CAT_ID":40269,"ELEMENT_SET_NO":999,"REV_AT_EPOCH":4195,"BSTAR":0,"MEAN_MOTION_DOT":-1.59e-6,"MEAN_MOTION_DDOT":0},{"OBJECT_NAME":"INTELSAT 30 (IS-30)","OBJECT_ID":"2014-062A","EPOCH":"2026-04-04T15:45:19.146240","MEAN_MOTION":1.00274302,"ECCENTRICITY":0.00014007,"INCLINATION":0.0127,"RA_OF_ASC_NODE":222.157,"ARG_OF_PERICENTER":36.6155,"MEAN_ANOMALY":75.4924,"EPHEMERIS_TYPE":0,"CLASSIFICATION_TYPE":"U","NORAD_CAT_ID":40271,"ELEMENT_SET_NO":999,"REV_AT_EPOCH":605,"BSTAR":0,"MEAN_MOTION_DOT":-1.51e-6,"MEAN_MOTION_DDOT":0},{"OBJECT_NAME":"ARSAT 1","OBJECT_ID":"2014-062B","EPOCH":"2026-04-05T05:33:34.545312","MEAN_MOTION":1.00272312,"ECCENTRICITY":0.00016996,"INCLINATION":0.0345,"RA_OF_ASC_NODE":282.2812,"ARG_OF_PERICENTER":92.2957,"MEAN_ANOMALY":190.5414,"EPHEMERIS_TYPE":0,"CLASSIFICATION_TYPE":"U","NORAD_CAT_ID":40272,"ELEMENT_SET_NO":999,"REV_AT_EPOCH":4189,"BSTAR":0,"MEAN_MOTION_DOT":-2.59e-6,"MEAN_MOTION_DDOT":0},{"OBJECT_NAME":"EUTELSAT 53A","OBJECT_ID":"2014-064A","EPOCH":"2026-04-03T04:31:18.397632","MEAN_MOTION":1.00275274,"ECCENTRICITY":0.0001404,"INCLINATION":0.0164,"RA_OF_ASC_NODE":233.1275,"ARG_OF_PERICENTER":171.7654,"MEAN_ANOMALY":267.4551,"EPHEMERIS_TYPE":0,"CLASSIFICATION_TYPE":"U","NORAD_CAT_ID":40277,"ELEMENT_SET_NO":999,"REV_AT_EPOCH":4081,"BSTAR":0,"MEAN_MOTION_DOT":9.4e-7,"MEAN_MOTION_DDOT":0},{"OBJECT_NAME":"BREEZE-M R/B","OBJECT_ID":"2014-064B","EPOCH":"2026-04-04T16:36:00.429696","MEAN_MOTION":0.95222894,"ECCENTRICITY":0.05863208,"INCLINATION":9.1163,"RA_OF_ASC_NODE":63.3792,"ARG_OF_PERICENTER":216.0066,"MEAN_ANOMALY":139.9354,"EPHEMERIS_TYPE":0,"CLASSIFICATION_TYPE":"U","NORAD_CAT_ID":40278,"ELEMENT_SET_NO":999,"REV_AT_EPOCH":3982,"BSTAR":0,"MEAN_MOTION_DOT":-2.05e-6,"MEAN_MOTION_DDOT":0},{"OBJECT_NAME":"MERIDIAN 7","OBJECT_ID":"2014-069A","EPOCH":"2026-04-04T21:37:26.611680","MEAN_MOTION":2.0058261,"ECCENTRICITY":0.66752863,"INCLINATION":63.4495,"RA_OF_ASC_NODE":222.5756,"ARG_OF_PERICENTER":271.0388,"MEAN_ANOMALY":19.2103,"EPHEMERIS_TYPE":0,"CLASSIFICATION_TYPE":"U","NORAD_CAT_ID":40296,"ELEMENT_SET_NO":999,"REV_AT_EPOCH":8376,"BSTAR":0,"MEAN_MOTION_DOT":1.6e-6,"MEAN_MOTION_DDOT":0},{"OBJECT_NAME":"GSAT-16","OBJECT_ID":"2014-078A","EPOCH":"2026-04-05T04:27:03.681792","MEAN_MOTION":1.00271636,"ECCENTRICITY":0.00065106,"INCLINATION":0.0642,"RA_OF_ASC_NODE":81.1909,"ARG_OF_PERICENTER":350.8953,"MEAN_ANOMALY":243.232,"EPHEMERIS_TYPE":0,"CLASSIFICATION_TYPE":"U","NORAD_CAT_ID":40332,"ELEMENT_SET_NO":999,"REV_AT_EPOCH":4137,"BSTAR":0,"MEAN_MOTION_DOT":8.6e-7,"MEAN_MOTION_DDOT":0},{"OBJECT_NAME":"DIRECTV 14","OBJECT_ID":"2014-078B","EPOCH":"2026-04-05T05:25:43.055328","MEAN_MOTION":1.00271441,"ECCENTRICITY":7.715e-5,"INCLINATION":0.0109,"RA_OF_ASC_NODE":177.0924,"ARG_OF_PERICENTER":304.2384,"MEAN_ANOMALY":54.385,"EPHEMERIS_TYPE":0,"CLASSIFICATION_TYPE":"U","NORAD_CAT_ID":40333,"ELEMENT_SET_NO":999,"REV_AT_EPOCH":4131,"BSTAR":0,"MEAN_MOTION_DOT":-1.24e-6,"MEAN_MOTION_DDOT":0},{"OBJECT_NAME":"YAMAL 401","OBJECT_ID":"2014-082A","EPOCH":"2026-04-04T12:10:55.496928","MEAN_MOTION":1.00273084,"ECCENTRICITY":7.473e-5,"INCLINATION":0.0033,"RA_OF_ASC_NODE":178.2178,"ARG_OF_PERICENTER":116.3114,"MEAN_ANOMALY":170.9589,"EPHEMERIS_TYPE":0,"CLASSIFICATION_TYPE":"U","NORAD_CAT_ID":40345,"ELEMENT_SET_NO":999,"REV_AT_EPOCH":4118,"BSTAR":0,"MEAN_MOTION_DOT":-2.28e-6,"MEAN_MOTION_DDOT":0},{"OBJECT_NAME":"ASTRA 2G","OBJECT_ID":"2014-089A","EPOCH":"2026-04-05T05:12:38.653056","MEAN_MOTION":1.00273844,"ECCENTRICITY":0.00049241,"INCLINATION":0.051,"RA_OF_ASC_NODE":3.2595,"ARG_OF_PERICENTER":42.3758,"MEAN_ANOMALY":254.2388,"EPHEMERIS_TYPE":0,"CLASSIFICATION_TYPE":"U","NORAD_CAT_ID":40364,"ELEMENT_SET_NO":999,"REV_AT_EPOCH":4123,"BSTAR":0,"MEAN_MOTION_DOT":1.51e-6,"MEAN_MOTION_DDOT":0},{"OBJECT_NAME":"FENGYUN 2G","OBJECT_ID":"2014-090A","EPOCH":"2026-04-05T06:01:51.715200","MEAN_MOTION":1.00291385,"ECCENTRICITY":0.0002385,"INCLINATION":5.4547,"RA_OF_ASC_NODE":73.684,"ARG_OF_PERICENTER":135.5167,"MEAN_ANOMALY":174.1867,"EPHEMERIS_TYPE":0,"CLASSIFICATION_TYPE":"U","NORAD_CAT_ID":40367,"ELEMENT_SET_NO":999,"REV_AT_EPOCH":4126,"BSTAR":0,"MEAN_MOTION_DOT":-3.0e-6,"MEAN_MOTION_DDOT":0}]
