CZ-3C DEB               
1 40200U 12008K   26090.76061146 -.00000256  00000+0  00000+0 0  9997
2 40200  20.8778 278.7761 6980944  89.9474 342.9246  2.19223860 97020
CZ-3C DEB               
1 40201U 12008L   26094.36812983  .00000073  00000+0  95676-2 0  9993
2 40201  21.3037 100.8506 7062671  34.5080 355.6997  2.24705643101531
CZ-3C DEB               
1 40206U 12008R   26079.78138975 -.00000259  00000+0 -21289-2 0  9996
2 40206  18.2935  33.8455 7231239 265.5993  16.8176  2.19223329 91918
CZ-3C DEB               
1 40207U 12008S   26094.77360379 -.00000159  00000+0 -31157-3 0  9993
2 40207  19.5800 337.8116 7209048 331.7085   3.4380  2.24314690 93779
BREEZE-M R/B            
1 40259U 14058B   26094.60385667 -.00000189  00000+0  00000+0 0  9997
2 40259  10.3081  60.4462 0638362 197.1007 160.6749  0.91687372 38557
HIMAWARI-8              
1 40267U 14060A   26095.27368333 -.00000274  00000+0  00000+0 0  9999
2 40267   0.0166 178.9139 0001010 185.4512  68.3911  1.00273836 42026
IRNSS-1C                
1 40269U 14061A   26095.02942029 -.00000159  00000+0  00000+0 0  9997
2 40269   6.3305  90.3322 0020848 356.3073 200.3264  1.00273058 41950
INTELSAT 30 (IS-30)     
1 40271U 14062A   26094.65647160 -.00000151  00000+0  00000+0 0  9999
2 40271   0.0127 222.1570 0001400  36.6155  75.4924  1.00274302  6057
ARSAT 1                 
1 40272U 14062B   26095.23164983 -.00000259  00000+0  00000+0 0  9991
2 40272   0.0345 282.2812 0001699  92.2957 190.5414  1.00272312 41897
EUTELSAT 53A            
1 40277U 14064A   26093.18840738  .00000094  00000+0  00000+0 0  9995
2 40277   0.0164 233.1275 0001404 171.7654 267.4551  1.00275274 40817
BREEZE-M R/B            
1 40278U 14064B   26094.69167164 -.00000205  00000+0  00000+0 0  9993
2 40278   9.1163  63.3792 0586320 216.0066 139.9354  0.95222894 39825
MERIDIAN 7              
1 40296U 14069A   26094.90100245  .00000160  00000+0  00000+0 0  9998
2 40296  63.4495 222.5756 6675286 271.0388  19.2103  2.00582610 83766
GSAT-16                 
1 40332U 14078A   26095.18545928  .00000086  00000+0  00000+0 0  9998
2 40332   0.0642  81.1909 0006510 350.8953 243.2320  1.00271636 41376
DIRECTV 14              
1 40333U 14078B   26095.22619277 -.00000124  00000+0  00000+0 0  9997
2 40333   0.0109 177.0924 0000771 304.2384  54.3850  1.00271441 41318
YAMAL 401               
1 40345U 14082A   26094.50758677 -.00000228  00000+0  00000+0 0  9998
2 40345   0.0033 178.2178 0000747 116.3114 170.9589  1.00273084 41181
ASTRA 2G                
1 40364U 14089A   26095.21711404  .00000151  00000+0  00000+0 0  9996
2 40364   0.0510   3.2595 0004924  42.3758 254.2388  1.00273844 41238
FENGYUN 2G              
1 40367U 14090A   26095.25129300 -.00000300  00000+0  00000+0 0  9990
2 40367   5.4547  73.6840 0002385 135.5167 174.1867  1.00291385 41267
